Store Name,Slug,City,State,Street Address,Suggested Latitude,Suggested Longitude,Notes
Mint Cannabis Buckeye,mint-cannabis-buckeye,Buckeye,AZ,26055 W Papago St,33.4289,-112.6387,
Mint Cannabis 75th Ave Phoenix,mint-cannabis-75th-ave-phoenix,Phoenix,AZ,3820 W Bethany Home Rd,33.5008,-112.1413,
Mint Cannabis Mesa,mint-cannabis-mesa,Mesa,AZ,1250 S Gilbert Rd,33.3940,-111.7890,
Mint Cannabis Tempe,mint-cannabis-tempe,Tempe,AZ,1260 E Apache Blvd,33.4145,-111.9192,
Mint Cannabis El Mirage,mint-cannabis-el-mirage,El Mirage,AZ,12761 W Thunderbird Rd,33.6067,-112.3250,
Mint Cannabis Phoenix,mint-cannabis-phoenix,Phoenix,AZ,1801 E Camelback Rd,33.5097,-112.0429,
Mint Cannabis Northern Phoenix,mint-cannabis-northern-phoenix,Phoenix,AZ,15835 N Cave Creek Rd,33.6182,-111.9949,
Mint Cannabis Scottsdale,mint-cannabis-scottsdale,Scottsdale,AZ,,,Look up actual address
Mint Cannabis Las Vegas Strip Dispensary,mint-cannabis-las-vegas-strip-dispensary,Las Vegas,NV,,,Look up actual address
Mint Cannabis West Las Vegas Dispensary,mint-cannabis-west-las-vegas-dispensary,Las Vegas,NV,,,Look up actual address
Mint Cannabis Monroe MI Dispensary,mint-cannabis-monroe-mi-dispensary,Monroe,MI,,,Look up actual address
Mint Cannabis Coldwater MI Dispensary,mint-cannabis-coldwater-mi-dispensary,Coldwater,MI,,,Look up actual address
Mint Cannabis Portage MI Dispensary,mint-cannabis-portage-mi-dispensary,Portage,MI,,,Look up actual address
Mint Cannabis Kalamazoo MI Dispensary,mint-cannabis-kalamazoo-mi-dispensary,Kalamazoo,MI,,,Look up actual address
Mint Cannabis New Buffalo MI Dispensary,mint-cannabis-new-buffalo-mi-dispensary,New Buffalo,MI,,,Look up actual address
Mint Cannabis Roseville MI Dispensary,mint-cannabis-roseville-mi-dispensary,Roseville,MI,,,Look up actual address
Mint Cannabis - St. Peters Dispensary,mint-cannabis-st-peters-dispensary,St. Peters,MO,,,Look up actual address
Mint Cannabis - Willowbrook IL Dispensary,mint-cannabis-willowbrook-il-dispensary,Willowbrook,IL,,,Look up actual address
Mint Cannabis Bradenton FL Dispensary,mint-cannabis-bradenton-fl-dispensary,Bradenton,FL,,,Look up actual address
Mint Cannabis Cape Coral FL Dispensary,mint-cannabis-cape-coral-fl-dispensary,Cape Coral,FL,,,Look up actual address
Mint Cannabis Delray Beach FL Dispensary,mint-cannabis-delray-beach-fl-dispensary,Delray Beach,FL,,,Look up actual address
Mint Cannabis Gainesville FL Dispensary,mint-cannabis-gainesville-fl-dispensary,Gainesville,FL,,,Look up actual address
Mint Cannabis Jacksonville FL Dispensary,mint-cannabis-jacksonville-fl-dispensary,Jacksonville,FL,,,Look up actual address
Mint Cannabis Longwood FL Dispensary,mint-cannabis-longwood-fl-dispensary,Longwood,FL,,,Look up actual address
Mint Cannabis Melbourne FL Dispensary,mint-cannabis-melbourne-fl-dispensary,Melbourne,FL,,,Look up actual address
Mint Cannabis Miami FL Dispensary,mint-cannabis-miami-fl-dispensary,Miami,FL,,,Look up actual address
Mint Cannabis  Orlando FL Dispensary,mint-cannabis-orlando-fl-dispensary,Orlando,FL,,,Look up actual address
Mint Cannabis Sarasota FL Dispensary,mint-cannabis-sarasota-fl-dispensary,Sarasota,FL,,,Look up actual address
Mint Cannabis St. Augustine FL Dispensary,mint-cannabis-st-augustine-fl-dispensary,St. Augustine,FL,,,Look up actual address
Mint Cannabis Stuart FL Dispensary,mint-cannabis-stuart-fl-dispensary,Stuart,FL,,,Look up actual address
Mint Cannabis Bonita Springs FL Dispensary,mint-cannabis-bonita-springs-fl-dispensary,Bonita Springs,FL,,,Look up actual address
Mint Cannabis Brandon FL Dispensary,mint-cannabis-brandon-fl-dispensary,Brandon,FL,,,Look up actual address
